[{"OBJECT_NAME":"GLOBALSTAR M083","OBJECT_ID":"2011-033A","EPOCH":"2026-03-29T04:24:57.828960","MEAN_MOTION":12.62268755,"ECCENTRICITY":8.02e-5,"INCLINATION":51.9848,"RA_OF_ASC_NODE":256.1607,"ARG_OF_PERICENTER":117.026,"MEAN_ANOMALY":52.6901,"EPHEMERIS_TYPE":0,"CLASSIFICATION_TYPE":"U","NORAD_CAT_ID":37739,"ELEMENT_SET_NO":999,"REV_AT_EPOCH":68284,"BSTAR":0.0001655,"MEAN_MOTION_DOT":-7.4e-7,"MEAN_MOTION_DDOT":0},{"OBJECT_NAME":"GLOBALSTAR M088","OBJECT_ID":"2011-033B","EPOCH":"2026-03-29T02:55:25.747392","MEAN_MOTION":12.62262516,"ECCENTRICITY":4.48e-5,"INCLINATION":52.0207,"RA_OF_ASC_NODE":162.5851,"ARG_OF_PERICENTER":118.6546,"MEAN_ANOMALY":246.5542,"EPHEMERIS_TYPE":0,"CLASSIFICATION_TYPE":"U","NORAD_CAT_ID":37740,"ELEMENT_SET_NO":999,"REV_AT_EPOCH":67838,"BSTAR":1.2905e-5,"MEAN_MOTION_DOT":-1.01e-6,"MEAN_MOTION_DDOT":0},{"OBJECT_NAME":"GLOBALSTAR M091","OBJECT_ID":"2011-033C","EPOCH":"2026-03-29T01:23:57.736032","MEAN_MOTION":12.6227066,"ECCENTRICITY":4.78e-5,"INCLINATION":51.9981,"RA_OF_ASC_NODE":125.8609,"ARG_OF_PERICENTER":113.5839,"MEAN_ANOMALY":263.7873,"EPHEMERIS_TYPE":0,"CLASSIFICATION_TYPE":"U","NORAD_CAT_ID":37741,"ELEMENT_SET_NO":999,"REV_AT_EPOCH":67916,"BSTAR":5.6165e-5,"MEAN_MOTION_DOT":-9.4e-7,"MEAN_MOTION_DDOT":0},{"OBJECT_NAME":"GLOBALSTAR M085","OBJECT_ID":"2011-033D","EPOCH":"2026-03-29T03:18:13.972608","MEAN_MOTION":12.62269938,"ECCENTRICITY":5.16e-5,"INCLINATION":52.0119,"RA_OF_ASC_NODE":76.8386,"ARG_OF_PERICENTER":102.134,"MEAN_ANOMALY":336.2279,"EPHEMERIS_TYPE":0,"CLASSIFICATION_TYPE":"U","NORAD_CAT_ID":37742,"ELEMENT_SET_NO":999,"REV_AT_EPOCH":67968,"BSTAR":4.8742e-5,"MEAN_MOTION_DOT":-9.5e-7,"MEAN_MOTION_DDOT":0},{"OBJECT_NAME":"GLOBALSTAR M081","OBJECT_ID":"2011-033E","EPOCH":"2026-03-29T03:56:52.063008","MEAN_MOTION":12.62263245,"ECCENTRICITY":2.58e-5,"INCLINATION":51.9954,"RA_OF_ASC_NODE":79.2847,"ARG_OF_PERICENTER":103.2533,"MEAN_ANOMALY":336.6567,"EPHEMERIS_TYPE":0,"CLASSIFICATION_TYPE":"U","NORAD_CAT_ID":37743,"ELEMENT_SET_NO":999,"REV_AT_EPOCH":67983,"BSTAR":5.9448e-5,"MEAN_MOTION_DOT":-9.3e-7,"MEAN_MOTION_DDOT":0},{"OBJECT_NAME":"GLOBALSTAR M089","OBJECT_ID":"2011-033F","EPOCH":"2026-03-29T05:12:46.116288","MEAN_MOTION":12.62265175,"ECCENTRICITY":3.6e-5,"INCLINATION":51.9954,"RA_OF_ASC_NODE":33.2992,"ARG_OF_PERICENTER":35.7962,"MEAN_ANOMALY":103.9408,"EPHEMERIS_TYPE":0,"CLASSIFICATION_TYPE":"U","NORAD_CAT_ID":37744,"ELEMENT_SET_NO":999,"REV_AT_EPOCH":68068,"BSTAR":3.333e-5,"MEAN_MOTION_DOT":-9.8e-7,"MEAN_MOTION_DDOT":0},{"OBJECT_NAME":"GLOBALSTAR M084","OBJECT_ID":"2011-080A","EPOCH":"2026-03-29T05:41:16.474272","MEAN_MOTION":12.6226602,"ECCENTRICITY":5.16e-5,"INCLINATION":52,"RA_OF_ASC_NODE":260.6802,"ARG_OF_PERICENTER":96.1402,"MEAN_ANOMALY":73.4676,"EPHEMERIS_TYPE":0,"CLASSIFICATION_TYPE":"U","NORAD_CAT_ID":38040,"ELEMENT_SET_NO":999,"REV_AT_EPOCH":65866,"BSTAR":9.4116e-5,"MEAN_MOTION_DOT":-8.7e-7,"MEAN_MOTION_DDOT":0},{"OBJECT_NAME":"GLOBALSTAR M080","OBJECT_ID":"2011-080B","EPOCH":"2026-03-28T21:22:15.860640","MEAN_MOTION":12.62267863,"ECCENTRICITY":0.00012316,"INCLINATION":52.0049,"RA_OF_ASC_NODE":263.4262,"ARG_OF_PERICENTER":96.148,"MEAN_ANOMALY":67.5707,"EPHEMERIS_TYPE":0,"CLASSIFICATION_TYPE":"U","NORAD_CAT_ID":38041,"ELEMENT_SET_NO":999,"REV_AT_EPOCH":65874,"BSTAR":0.00012261872,"MEAN_MOTION_DOT":-8.2e-7,"MEAN_MOTION_DDOT":0},{"OBJECT_NAME":"GLOBALSTAR M082","OBJECT_ID":"2011-080C","EPOCH":"2026-03-29T01:34:57.533088","MEAN_MOTION":12.62268709,"ECCENTRICITY":0.0001037,"INCLINATION":52.0069,"RA_OF_ASC_NODE":218.3829,"ARG_OF_PERICENTER":109.9261,"MEAN_ANOMALY":61.6168,"EPHEMERIS_TYPE":0,"CLASSIFICATION_TYPE":"U","NORAD_CAT_ID":38042,"ELEMENT_SET_NO":999,"REV_AT_EPOCH":65947,"BSTAR":-3.7734e-5,"MEAN_MOTION_DOT":-1.11e-6,"MEAN_MOTION_DDOT":0},{"OBJECT_NAME":"GLOBALSTAR M092","OBJECT_ID":"2011-080D","EPOCH":"2026-03-29T02:52:41.138112","MEAN_MOTION":12.6226521,"ECCENTRICITY":7.49e-5,"INCLINATION":52.0091,"RA_OF_ASC_NODE":308.6135,"ARG_OF_PERICENTER":87.8034,"MEAN_ANOMALY":88.8196,"EPHEMERIS_TYPE":0,"CLASSIFICATION_TYPE":"U","NORAD_CAT_ID":38043,"ELEMENT_SET_NO":999,"REV_AT_EPOCH":65793,"BSTAR":0.00021171,"MEAN_MOTION_DOT":-6.6e-7,"MEAN_MOTION_DDOT":0},{"OBJECT_NAME":"GLOBALSTAR M090","OBJECT_ID":"2011-080E","EPOCH":"2026-03-29T02:13:05.692800","MEAN_MOTION":12.6227212,"ECCENTRICITY":7.68e-5,"INCLINATION":52.0118,"RA_OF_ASC_NODE":212.2321,"ARG_OF_PERICENTER":122.4966,"MEAN_ANOMALY":48.6398,"EPHEMERIS_TYPE":0,"CLASSIFICATION_TYPE":"U","NORAD_CAT_ID":38044,"ELEMENT_SET_NO":999,"REV_AT_EPOCH":65959,"BSTAR":-8.4585e-5,"MEAN_MOTION_DOT":-1.19e-6,"MEAN_MOTION_DDOT":0},{"OBJECT_NAME":"GLOBALSTAR M086","OBJECT_ID":"2011-080F","EPOCH":"2026-03-29T02:46:11.659872","MEAN_MOTION":12.62284586,"ECCENTRICITY":9.06e-5,"INCLINATION":51.9893,"RA_OF_ASC_NODE":212.2232,"ARG_OF_PERICENTER":197.2057,"MEAN_ANOMALY":334.0931,"EPHEMERIS_TYPE":0,"CLASSIFICATION_TYPE":"U","NORAD_CAT_ID":38045,"ELEMENT_SET_NO":999,"REV_AT_EPOCH":65954,"BSTAR":-6.2605e-6,"MEAN_MOTION_DOT":-1.05e-6,"MEAN_MOTION_DDOT":0},{"OBJECT_NAME":"GLOBALSTAR M097","OBJECT_ID":"2013-005A","EPOCH":"2026-03-29T00:40:05.465856","MEAN_MOTION":12.62260108,"ECCENTRICITY":4.73e-5,"INCLINATION":52.003,"RA_OF_ASC_NODE":127.3441,"ARG_OF_PERICENTER":128.0086,"MEAN_ANOMALY":232.0823,"EPHEMERIS_TYPE":0,"CLASSIFICATION_TYPE":"U","NORAD_CAT_ID":39072,"ELEMENT_SET_NO":999,"REV_AT_EPOCH":60678,"BSTAR":0.00010004,"MEAN_MOTION_DOT":-8.6e-7,"MEAN_MOTION_DDOT":0},{"OBJECT_NAME":"GLOBALSTAR M093","OBJECT_ID":"2013-005B","EPOCH":"2026-03-29T00:02:25.069920","MEAN_MOTION":12.62264219,"ECCENTRICITY":5.79e-5,"INCLINATION":52.0088,"RA_OF_ASC_NODE":120.7423,"ARG_OF_PERICENTER":142.7786,"MEAN_ANOMALY":217.3121,"EPHEMERIS_TYPE":0,"CLASSIFICATION_TYPE":"U","NORAD_CAT_ID":39073,"ELEMENT_SET_NO":999,"REV_AT_EPOCH":60673,"BSTAR":6.8956e-5,"MEAN_MOTION_DOT":-9.1e-7,"MEAN_MOTION_DDOT":0},{"OBJECT_NAME":"GLOBALSTAR M094","OBJECT_ID":"2013-005C","EPOCH":"2026-03-29T03:50:40.339104","MEAN_MOTION":12.62267112,"ECCENTRICITY":5.1e-5,"INCLINATION":51.9984,"RA_OF_ASC_NODE":34.4561,"ARG_OF_PERICENTER":100.704,"MEAN_ANOMALY":259.3885,"EPHEMERIS_TYPE":0,"CLASSIFICATION_TYPE":"U","NORAD_CAT_ID":39074,"ELEMENT_SET_NO":999,"REV_AT_EPOCH":60836,"BSTAR":-3.3584e-5,"MEAN_MOTION_DOT":-1.1e-6,"MEAN_MOTION_DDOT":0},{"OBJECT_NAME":"GLOBALSTAR M096","OBJECT_ID":"2013-005D","EPOCH":"2026-03-29T04:09:42.884064","MEAN_MOTION":12.62263926,"ECCENTRICITY":4.27e-5,"INCLINATION":52.0065,"RA_OF_ASC_NODE":83.1529,"ARG_OF_PERICENTER":109.8056,"MEAN_ANOMALY":250.2857,"EPHEMERIS_TYPE":0,"CLASSIFICATION_TYPE":"U","NORAD_CAT_ID":39075,"ELEMENT_SET_NO":999,"REV_AT_EPOCH":60728,"BSTAR":3.5526e-5,"MEAN_MOTION_DOT":-9.7e-7,"MEAN_MOTION_DDOT":0},{"OBJECT_NAME":"GLOBALSTAR M078","OBJECT_ID":"2013-005E","EPOCH":"2026-03-29T05:25:04.361952","MEAN_MOTION":12.62275216,"ECCENTRICITY":0.0001369,"INCLINATION":51.9865,"RA_OF_ASC_NODE":167.115,"ARG_OF_PERICENTER":99.3921,"MEAN_ANOMALY":260.71,"EPHEMERIS_TYPE":0,"CLASSIFICATION_TYPE":"U","NORAD_CAT_ID":39076,"ELEMENT_SET_NO":999,"REV_AT_EPOCH":60591,"BSTAR":0.0001388,"MEAN_MOTION_DOT":-7.9e-7,"MEAN_MOTION_DDOT":0}]
