GLOBALSTAR M083         
1 37739U 11033A   26088.18400265 -.00000074  00000+0  16550-3 0  9998
2 37739  51.9848 256.1607 0000802 117.0260  52.6901 12.62268755682845
GLOBALSTAR M088         
1 37740U 11033B   26088.12182578 -.00000101  00000+0  12905-4 0  9990
2 37740  52.0207 162.5851 0000448 118.6546 246.5542 12.62262516678387
GLOBALSTAR M091         
1 37741U 11033C   26088.05830713 -.00000094  00000+0  56165-4 0  9991
2 37741  51.9981 125.8609 0000478 113.5839 263.7873 12.62270660679164
GLOBALSTAR M085         
1 37742U 11033D   26088.13766172 -.00000095  00000+0  48742-4 0  9991
2 37742  52.0119  76.8386 0000516 102.1340 336.2279 12.62269938679680
GLOBALSTAR M081         
1 37743U 11033E   26088.16449147 -.00000093  00000+0  59448-4 0  9998
2 37743  51.9954  79.2847 0000258 103.2533 336.6567 12.62263245679830
GLOBALSTAR M089         
1 37744U 11033F   26088.21720042 -.00000098  00000+0  33330-4 0  9998
2 37744  51.9954  33.2992 0000360  35.7962 103.9408 12.62265175680689
GLOBALSTAR M084         
1 38040U 11080A   26088.23699623 -.00000087  00000+0  94116-4 0  9999
2 38040  52.0000 260.6802 0000516  96.1402  73.4676 12.62266020658663
GLOBALSTAR M080         
1 38041U 11080B   26087.89046135 -.00000082  00000+0  12262-3 0  9991
2 38041  52.0049 263.4262 0001231  96.1480  67.5707 12.62267863658743
GLOBALSTAR M082         
1 38042U 11080C   26088.06594367 -.00000111  00000+0 -37734-4 0  9993
2 38042  52.0069 218.3829 0001037 109.9261  61.6168 12.62268709659475
GLOBALSTAR M092         
1 38043U 11080D   26088.11992058 -.00000066  00000+0  21171-3 0  9994
2 38043  52.0091 308.6135 0000749  87.8034  88.8196 12.62265210657930
GLOBALSTAR M090         
1 38044U 11080E   26088.09242700 -.00000119  00000+0 -84585-4 0  9993
2 38044  52.0118 212.2321 0000768 122.4966  48.6398 12.62272120659599
GLOBALSTAR M086         
1 38045U 11080F   26088.11541273 -.00000105  00000+0 -62605-5 0  9999
2 38045  51.9893 212.2232 0000906 197.2057 334.0931 12.62284586659543
GLOBALSTAR M097         
1 39072U 13005A   26088.02784104 -.00000086  00000+0  10004-3 0  9992
2 39072  52.0030 127.3441 0000473 128.0086 232.0823 12.62260108606789
GLOBALSTAR M093         
1 39073U 13005B   26088.00167905 -.00000091  00000+0  68956-4 0  9991
2 39073  52.0088 120.7423 0000579 142.7786 217.3121 12.62264219606736
GLOBALSTAR M094         
1 39074U 13005C   26088.16018911 -.00000110  00000+0 -33584-4 0  9993
2 39074  51.9984  34.4561 0000510 100.7040 259.3885 12.62267112608365
GLOBALSTAR M096         
1 39075U 13005D   26088.17341301 -.00000097  00000+0  35526-4 0  9998
2 39075  52.0065  83.1529 0000427 109.8056 250.2857 12.62263926607285
GLOBALSTAR M078         
1 39076U 13005E   26088.22574493 -.00000079  00000+0  13880-3 0  9993
2 39076  51.9865 167.1150 0001369  99.3921 260.7100 12.62275216605915
